OBJECT_NAME,OBJECT_ID,EPOCH,MEAN_MOTION,ECCENTRICITY,INCLINATION,RA_OF_ASC_NODE,ARG_OF_PERICENTER,MEAN_ANOMALY,EPHEMERIS_TYPE,CLASSIFICATION_TYPE,NORAD_CAT_ID,ELEMENT_SET_NO,REV_AT_EPOCH,BSTAR,MEAN_MOTION_DOT,MEAN_MOTION_DDOT
GALAXY 17 (G-17),2007-016B,2026-07-07T15:03:13.637952,1.00272146,.000371,3.0200,79.6457,26.8003,319.9301,0,U,31307,999,7000,0,-.193E-5,0
INTELSAT 11 (IS-11),2007-044B,2026-07-07T17:20:17.930400,0.99049533,.0003835,3.6155,78.4234,96.1145,46.6580,0,U,32253,999,6865,0,.36E-6,0
WGS F1 (USA 195),2007-046A,2026-07-07T18:40:40.222848,1.00272485,.0000504,0.0168,79.6028,140.6475,303.1834,0,U,32258,999,5254,0,-.252E-5,0
SKYNET 5B,2007-056B,2026-07-07T07:01:17.399136,1.00270957,.00037137,5.3019,73.2653,33.0721,309.3163,0,U,32294,999,6839,0,.152E-5,0
ASTRA 4A,2007-057A,2026-07-07T17:11:26.153088,1.00271950,.0002451,0.0429,285.0672,180.0955,83.1926,0,U,32299,999,5185,0,.48E-6,0
HORIZONS-2,2007-063B,2026-07-07T13:23:30.455232,1.00272137,.0003784,2.6513,80.3804,13.9296,318.2991,0,U,32388,999,6801,0,-.24E-5,0
THURAYA-3,2008-001A,2026-07-07T15:45:34.255008,1.00270082,.0002348,6.0220,35.8079,69.9877,119.9243,0,U,32404,999,6769,0,.21E-6,0
THOR 5,2008-006A,2026-07-07T15:27:11.340864,1.00272625,.0002463,0.0553,248.4496,227.3910,40.8258,0,U,32487,999,6752,0,.6E-7,0
AMC-14,2008-011A,2026-07-07T00:42:21.691872,1.00420335,.00401627,24.0333,20.2805,7.9613,341.7767,0,U,32708,999,6836,0,-.134E-5,0
DIRECTV 11,2008-013A,2026-07-07T14:59:06.533088,1.00270759,.0000158,0.0374,206.3511,255.2106,309.6178,0,U,32729,999,4579,0,-.11E-5,0
ICO G1,2008-016A,2026-07-07T15:00:58.853952,1.00271887,.0002174,5.5289,36.0712,56.9333,324.9618,0,U,32763,999,6675,0,-.16E-5,0
VINASAT-1,2008-018A,2026-07-07T17:47:45.295872,1.00271755,.0001484,0.0462,277.8739,205.5139,201.2000,0,U,32767,999,6679,0,-.313E-5,0
STAR ONE C2,2008-018B,2026-07-07T13:26:15.192384,1.00270886,.0002812,1.2893,82.2813,39.5695,300.2365,0,U,32768,999,6685,0,-.262E-5,0
AMOS-3,2008-022A,2026-07-07T17:25:39.913824,1.00486027,.0002875,0.5050,85.9415,79.1786,76.4398,0,U,32794,999,8254,0,.68E-6,0
GALAXY 18 (G-18),2008-024A,2026-07-07T16:34:59.647296,1.00272871,.0002931,0.0152,327.8069,149.2192,294.3841,0,U,32951,999,4605,0,.4E-6,0
ZHONGXING-9,2008-028A,2026-07-07T21:10:21.660096,1.00272488,.0003685,0.8184,85.1115,11.4181,239.2860,0,U,33051,999,6624,0,-.234E-5,0
SKYNET 5C,2008-030A,2026-07-07T10:14:21.410880,1.00270187,.00042913,3.8374,76.8023,40.4480,303.9236,0,U,33055,999,6615,0,-.127E-5,0
TURKSAT 3A,2008-030B,2026-07-06T22:32:49.540128,1.00273184,.00049562,0.0565,79.5546,6.9870,218.5746,0,U,33056,999,5255,0,.161E-5,0
ECHOSTAR 11,2008-035A,2026-07-07T14:56:06.821088,1.00278479,.0002381,1.0547,83.9563,17.5059,298.3704,0,U,33207,999,5141,0,-.44E-6,0
SUPERBIRD-C2,2008-038A,2026-07-07T17:48:52.687872,1.00272507,.0006226,2.4107,81.0121,35.2108,212.7061,0,U,33274,999,10593,0,-.292E-5,0
INMARSAT 4-F3,2008-039A,2026-07-07T16:41:58.975872,1.00272286,.0002577,4.3100,31.6789,77.4376,329.0296,0,U,33278,999,4675,0,-.128E-5,0
NIMIQ 4,2008-044A,2026-07-07T15:04:06.055104,1.00269876,.0001912,0.0171,47.0272,50.6246,331.9466,0,U,33373,999,6518,0,-.205E-5,0
GALAXY 19 (G-19),2008-045A,2026-07-07T14:59:43.972800,1.00271643,.000281,0.0577,253.8618,236.1509,283.5017,0,U,33376,999,6510,0,-.124E-5,0
ASTRA 1M,2008-057A,2026-07-07T17:15:40.873248,1.00273217,.0004861,0.3459,82.7241,37.9428,83.3275,0,U,33436,999,4594,0,.136E-5,0
EUTELSAT HOTBIRD 13C,2008-065A,2026-07-07T18:38:25.438848,1.00275992,.0003347,3.0000,78.9474,27.1761,48.8933,0,U,33459,999,4755,0,-.269E-5,0
EXPRESS-AM44,2009-007A,2026-07-07T20:32:20.205888,1.00271558,.0004027,3.5133,78.1491,21.7130,123.0255,0,U,33595,999,5249,0,-.76E-6,0
NSS-9,2009-008A,2026-07-07T16:19:23.642400,1.00269489,.0002044,1.3114,82.4652,13.5238,257.5804,0,U,33749,999,6372,0,.86E-6,0
TELSTAR 11N,2009-009A,2026-07-07T16:59:27.300768,1.00270628,.0002413,0.0244,75.6721,32.4204,34.8908,0,U,34111,999,4645,0,-.236E-5,0
WGS F2 (USA 204),2009-017A,2026-07-07T17:26:32.330112,1.00272498,.0000425,0.0186,27.3821,149.1807,68.2580,0,U,34713,999,4582,0,.83E-6,0
SES-7 (PROTOSTAR 2),2009-027A,2026-07-07T17:41:00.943008,1.00270408,.000125,0.0119,41.3869,149.9369,107.8765,0,U,34941,999,6283,0,-.33E-5,0
MEASAT-3A,2009-032A,2026-07-07T17:55:29.555040,1.00270887,.0002894,0.0215,10.1067,90.6642,253.8154,0,U,35362,999,823,0,-.95E-6,0
GOES 14,2009-033A,2026-07-07T17:47:07.857024,1.00102235,.0002012,1.7395,82.7948,34.9932,204.3708,0,U,35491,999,679,0,-.335E-5,0
FM-5,2009-034A,2026-07-07T15:02:51.173952,1.00269517,.0000987,0.0407,267.0345,70.1032,88.0038,0,U,35493,999,4684,0,-.185E-5,0
TERRESTAR-1,2009-035A,2026-07-07T19:00:15.882336,1.00271714,.0002589,5.1941,48.7828,49.7962,1.2273,0,U,35496,999,6234,0,-.45E-6,0
ASIASAT 5,2009-042A,2026-07-07T21:10:21.660096,1.00268196,.000168,0.0306,272.7684,175.6092,255.5367,0,U,35696,999,6191,0,-.291E-5,0
JCSAT-12 (JCSAT-RA),2009-044A,2026-07-07T17:47:45.295872,1.00272241,.0001187,0.0474,273.7485,273.6095,137.3263,0,U,35755,999,6181,0,-.312E-5,0
OPTUS D3,2009-044B,2026-07-07T17:54:37.137888,1.00269553,.0003157,0.8879,268.4001,205.0734,237.0269,0,U,35756,999,6177,0,-.13E-5,0
NIMIQ 5,2009-050A,2026-07-07T11:41:24.935424,1.00276208,.0002898,0.0577,261.8359,206.4699,279.8081,0,U,35873,999,6154,0,-.242E-5,0
AMAZONAS 2,2009-054A,2026-07-07T13:24:15.384096,1.00272831,.0003302,1.8650,82.7959,24.2747,307.5205,0,U,35942,999,6138,0,-.245E-5,0
COMSATBW-1,2009-054B,2026-07-07T17:28:02.186112,1.00273299,.0002736,0.0602,194.2774,285.2316,131.2323,0,U,35943,999,6151,0,.39E-6,0
NSS-12,2009-058A,2026-07-07T17:26:24.841824,1.00273183,.0004337,0.0523,279.8342,152.5640,171.9057,0,U,36032,999,6112,0,.86E-6,0
THOR 6,2009-058B,2026-07-07T17:09:56.297088,1.00271056,.0002222,0.0412,232.1409,264.6464,45.5234,0,U,36033,999,6121,0,.5E-7,0
INTELSAT 14 (IS-14),2009-064A,2026-07-07T16:57:20.005056,1.00270786,.0002271,0.0075,32.1586,84.6759,18.1834,0,U,36097,999,6081,0,-.258E-5,0
EUTELSAT 36B,2009-065A,2026-07-07T17:24:32.520960,1.00271081,.0005869,0.5395,81.2874,26.0141,130.0012,0,U,36101,999,6091,0,.127E-5,0
INTELSAT 15 (IS-15),2009-067A,2026-07-07T17:34:24.075840,1.00271191,.0002241,0.0183,28.3006,83.4657,162.6809,0,U,36106,999,4143,0,-.17E-5,0
WGS F3 (USA 211),2009-068A,2026-07-07T16:32:59.839008,1.00266562,.0000312,0.3032,85.6554,76.2796,241.9871,0,U,36108,999,4679,0,.8E-6,0
DIRECTV 12,2009-075A,2026-07-07T14:58:06.630240,1.00271960,.0000279,0.0370,181.4659,336.4988,249.4222,0,U,36131,999,4675,0,-.88E-6,0
BEIDOU-2 G1,2010-001A,2026-07-07T21:15:27.187776,1.00268940,.0001657,4.3387,60.3366,302.9039,21.9176,0,U,36287,999,6037,0,-.268E-5,0
SDO,2010-005A,2026-07-07T06:00:06.100704,1.00269725,.00016526,34.6901,86.0392,55.2327,131.6689,0,U,36395,999,6026,0,-.76E-6,0
INTELSAT 16 (IS-16),2010-006A,2026-07-07T13:23:00.502080,1.00269540,.0002465,0.0139,321.7013,168.4323,279.9378,0,U,36397,999,5985,0,-.229E-5,0
EWS-G2 (GOES 15),2010-008A,2026-07-07T17:28:09.675264,1.00268168,.0005289,1.3307,82.5659,51.0072,117.5653,0,U,36411,999,5984,0,.36E-6,0
ECHOSTAR 14,2010-010A,2026-07-07T14:53:29.572224,1.00271501,.0001908,0.0525,260.5705,198.2183,291.2608,0,U,36499,999,4675,0,.16E-6,0
SES-1,2010-016A,2026-07-07T14:58:36.580800,1.00270893,.0002611,0.0329,294.7554,169.1988,305.2845,0,U,36516,999,5923,0,-.99E-6,0
ASTRA 3B,2010-021A,2026-07-07T17:16:48.265248,1.00273570,.0004265,1.5215,83.3064,19.1347,105.9322,0,U,36581,999,5907,0,.151E-5,0
COMSATBW-2,2010-021B,2026-07-07T15:31:10.959168,1.00271573,.000245,0.0420,141.6390,340.6760,49.2953,0,U,36582,999,5916,0,.104E-5,0
BEIDOU-2 G3,2010-024A,2026-07-07T17:32:46.733280,1.00269496,.0007275,4.5613,61.4199,359.0965,208.0057,0,U,36590,999,5897,0,-.123E-5,0
BADR-5,2010-025A,2026-07-07T17:18:48.071808,1.00265705,.0005653,0.0403,144.5545,48.7489,22.5387,0,U,36592,999,5342,0,.169E-5,0
COMS 1,2010-032A,2026-07-07T00:02:01.505184,0.99169409,.00114407,4.8529,75.1185,14.6993,190.2555,0,U,36744,999,5128,0,-.175E-5,0
ARABSAT-5A,2010-032B,2026-07-07T17:18:48.071808,1.00270527,.0005597,0.0944,62.5075,54.5305,98.8228,0,U,36745,999,5885,0,.169E-5,0
ECHOSTAR 15,2010-034A,2026-07-07T14:53:37.058784,1.00270494,.0002187,0.0210,306.2048,135.5831,308.3900,0,U,36792,999,5852,0,.15E-6,0
BEIDOU-2 IGSO-1,2010-036A,2026-07-07T14:57:11.145024,1.00266308,.0059224,54.3062,162.7756,225.1869,229.2421,0,U,36828,999,5830,0,-.58E-6,0
NILESAT 201,2010-037A,2026-07-07T17:08:11.462784,1.00271566,.0005437,0.0157,202.1532,293.2476,40.3356,0,U,36830,999,5858,0,-.42E-6,0
RASCOM-QAF 1R,2010-037B,2026-07-07T17:10:56.199936,1.00271705,.0006474,0.0166,66.7664,31.3320,88.1912,0,U,36831,999,5851,0,.34E-6,0
AEHF-1 (USA 214),2010-039A,2026-07-07T07:02:39.767712,1.00271046,.00038699,8.2672,67.7814,34.7543,318.3202,0,U,36868,999,5385,0,.157E-5,0
XM-5,2010-053A,2026-07-07T16:37:14.432160,1.00270759,.0001769,0.0642,268.3506,309.1384,202.2822,0,U,37185,999,5768,0,-.8E-7,0
BSAT-3B,2010-056B,2026-07-07T17:41:23.407008,1.00271375,.0002449,0.0647,238.2587,303.8616,118.7692,0,U,37207,999,5230,0,-.335E-5,0
BEIDOU-2 G4,2010-057A,2026-07-07T14:45:23.159232,1.00270800,.0005164,3.6943,68.8236,185.9338,52.1315,0,U,37210,999,5749,0,-.1E-5,0
SKYTERRA 1,2010-061A,2026-07-07T16:41:14.047872,1.00271057,.0002304,5.1659,50.8136,33.3216,350.5030,0,U,37218,999,5740,0,-.106E-5,0
HYLAS 1,2010-065A,2026-07-07T21:00:00.000000,1.00637435,.0000718,5.6913,72.7804,130.1391,60.5943,0,U,37237,999,709,0,.16E-5,0
INTELSAT 17 (IS-17),2010-065B,2026-07-07T17:28:54.604128,1.00272615,.0002608,0.0093,76.9220,34.9628,142.0230,0,U,37238,999,5345,0,.14E-6,0
BEIDOU-2 IGSO-2,2010-068A,2026-07-07T15:58:10.675776,1.00276167,.0056836,47.5102,271.5779,213.5507,148.3457,0,U,37256,999,5700,0,-.203E-5,0
EUTELSAT KA-SAT 9A,2010-069A,2026-07-07T17:12:41.033376,1.00273301,.00043,0.0602,12.7249,127.7399,52.3720,0,U,37258,999,4421,0,.77E-6,0
HISPASAT 30W-5,2010-070A,2026-07-07T17:01:34.599072,1.00272524,.00056,0.0287,161.6737,320.0360,29.3558,0,U,37264,999,5339,0,-.201E-5,0
